{
  "type": "FeatureCollection",
  "features": [
    {
      "type": "Feature",
      "properties": {
        "norad_id": 37487,
        "name": "COSMOS 2251 DEB",
        "group": "cosmos-2251-debris",
        "lat": 49.94574587188474,
        "lon": -169.19098537622182,
        "alt_km": 606.6868076495684,
        "timestamp": "2025-12-23T11:34:48.557984+00:00",
        "meta_object_name": "COSMOS 2251 DEB",
        "meta_object_id": "1993-036BLQ",
        "meta_epoch": "2025-12-12T06:17:24.389376",
        "meta_mean_motion": 14.80982589,
        "meta_eccentricity": 0.00255931,
        "meta_inclination": 73.9026,
        "meta_ra_of_asc_node": 193.0379,
        "meta_arg_of_pericenter": 31.2136,
        "meta_mean_anomaly": 329.0553,
        "meta_ephemeris_type": 0,
        "meta_classification_type": "U",
        "meta_norad_cat_id": 37487,
        "meta_element_set_no": 999,
        "meta_rev_at_epoch": 81238,
        "meta_bstar": 0.0042593386,
        "meta_mean_motion_dot": 0.00033302,
        "meta_mean_motion_ddot": 0,
        "tle_line1": "1 37487U 93036BLQ 25346.26208784  .00033302  00000+0  42593-2 0  9992",
        "tle_line2": "2 37487  73.9026 193.0379 0025593  31.2136 329.0553 14.80982589812383"
      },
      "geometry": {
        "type": "Point",
        "coordinates": [
          -169.19098537622182,
          49.94574587188474
        ]
      }
    },
    {
      "type": "Feature",
      "properties": {
        "norad_id": 37491,
        "name": "COSMOS 2251 DEB",
        "group": "cosmos-2251-debris",
        "lat": 34.43357922241809,
        "lon": -92.50289000473866,
        "alt_km": 1175.4046501591602,
        "timestamp": "2025-12-23T11:34:48.557993+00:00",
        "meta_object_name": "COSMOS 2251 DEB",
        "meta_object_id": "1993-036BLU",
        "meta_epoch": "2025-12-22T10:57:29.496960",
        "meta_mean_motion": 13.75314212,
        "meta_eccentricity": 0.03164965,
        "meta_inclination": 73.9061,
        "meta_ra_of_asc_node": 257.8008,
        "meta_arg_of_pericenter": 249.1105,
        "meta_mean_anomaly": 107.5867,
        "meta_ephemeris_type": 0,
        "meta_classification_type": "U",
        "meta_norad_cat_id": 37491,
        "meta_element_set_no": 999,
        "meta_rev_at_epoch": 55880,
        "meta_bstar": 0.00087641846,
        "meta_mean_motion_dot": 1.186e-05,
        "meta_mean_motion_ddot": 0,
        "tle_line1": "1 37491U 93036BLU 25356.45659140  .00001186  00000+0  87642-3 0  9995",
        "tle_line2": "2 37491  73.9061 257.8008 0316496 249.1105 107.5867 13.75314212558802"
      },
      "geometry": {
        "type": "Point",
        "coordinates": [
          -92.50289000473866,
          34.43357922241809
        ]
      }
    },
    {
      "type": "Feature",
      "properties": {
        "norad_id": 37498,
        "name": "COSMOS 2251 DEB",
        "group": "cosmos-2251-debris",
        "lat": -73.77836799336006,
        "lon": 83.8316152172314,
        "alt_km": 711.0858290223587,
        "timestamp": "2025-12-23T11:34:48.558002+00:00",
        "meta_object_name": "COSMOS 2251 DEB",
        "meta_object_id": "1993-036BMB",
        "meta_epoch": "2025-12-17T05:47:45.632832",
        "meta_mean_motion": 14.54797097,
        "meta_eccentricity": 0.00121661,
        "meta_inclination": 74.035,
        "meta_ra_of_asc_node": 175.365,
        "meta_arg_of_pericenter": 238.5243,
        "meta_mean_anomaly": 121.4732,
        "meta_ephemeris_type": 0,
        "meta_classification_type": "U",
        "meta_norad_cat_id": 37498,
        "meta_element_set_no": 999,
        "meta_rev_at_epoch": 65420,
        "meta_bstar": 0.00050498457,
        "meta_mean_motion_dot": 2.139e-05,
        "meta_mean_motion_ddot": 0,
        "tle_line1": "1 37498U 93036BMB 25351.24150038  .00002139  00000+0  50498-3 0  9994",
        "tle_line2": "2 37498  74.0350 175.3650 0012166 238.5243 121.4732 14.54797097654202"
      },
      "geometry": {
        "type": "Point",
        "coordinates": [
          83.8316152172314,
          -73.77836799336006
        ]
      }
    },
    {
      "type": "Feature",
      "properties": {
        "norad_id": 37499,
        "name": "COSMOS 2251 DEB",
        "group": "cosmos-2251-debris",
        "lat": 51.99752639591877,
        "lon": -35.98991484245444,
        "alt_km": 756.8617178305203,
        "timestamp": "2025-12-23T11:34:48.558011+00:00",
        "meta_object_name": "COSMOS 2251 DEB",
        "meta_object_id": "1993-036BMC",
        "meta_epoch": "2025-12-23T02:57:22.620672",
        "meta_mean_motion": 14.34351991,
        "meta_eccentricity": 0.0027421,
        "meta_inclination": 74.0383,
        "meta_ra_of_asc_node": 303.1803,
        "meta_arg_of_pericenter": 16.3552,
        "meta_mean_anomaly": 343.8478,
        "meta_ephemeris_type": 0,
        "meta_classification_type": "U",
        "meta_norad_cat_id": 37499,
        "meta_element_set_no": 999,
        "meta_rev_at_epoch": 85298,
        "meta_bstar": 0.00016952,
        "meta_mean_motion_dot": 4.53e-06,
        "meta_mean_motion_ddot": 0,
        "tle_line1": "1 37499U 93036BMC 25357.12317848  .00000453  00000+0  16952-3 0  9996",
        "tle_line2": "2 37499  74.0383 303.1803 0027421  16.3552 343.8478 14.34351991852984"
      },
      "geometry": {
        "type": "Point",
        "coordinates": [
          -35.98991484245444,
          51.99752639591877
        ]
      }
    },
    {
      "type": "Feature",
      "properties": {
        "norad_id": 37528,
        "name": "COSMOS 2251 DEB",
        "group": "cosmos-2251-debris",
        "lat": 59.78691046569388,
        "lon": -107.49081491435001,
        "alt_km": 727.9024990072412,
        "timestamp": "2025-12-23T11:34:48.558020+00:00",
        "meta_object_name": "COSMOS 2251 DEB",
        "meta_object_id": "1993-036BNH",
        "meta_epoch": "2025-12-22T00:17:10.365792",
        "meta_mean_motion": 14.50551817,
        "meta_eccentricity": 0.00211657,
        "meta_inclination": 74.0378,
        "meta_ra_of_asc_node": 104.7119,
        "meta_arg_of_pericenter": 251.9967,
        "meta_mean_anomaly": 107.8887,
        "meta_ephemeris_type": 0,
        "meta_classification_type": "U",
        "meta_norad_cat_id": 37528,
        "meta_element_set_no": 999,
        "meta_rev_at_epoch": 86065,
        "meta_bstar": 0.00046776664,
        "meta_mean_motion_dot": 1.81e-05,
        "meta_mean_motion_ddot": 0,
        "tle_line1": "1 37528U 93036BNH 25356.01192553  .00001810  00000+0  46777-3 0  9996",
        "tle_line2": "2 37528  74.0378 104.7119 0021165 251.9967 107.8887 14.50551817860654"
      },
      "geometry": {
        "type": "Point",
        "coordinates": [
          -107.49081491435001,
          59.78691046569388
        ]
      }
    },
    {
      "type": "Feature",
      "properties": {
        "norad_id": 37530,
        "name": "COSMOS 2251 DEB",
        "group": "cosmos-2251-debris",
        "lat": 51.05029463782156,
        "lon": 113.22888379923272,
        "alt_km": 778.9117251149473,
        "timestamp": "2025-12-23T11:34:48.558029+00:00",
        "meta_object_name": "COSMOS 2251 DEB",
        "meta_object_id": "1993-036BNK",
        "meta_epoch": "2025-12-21T14:21:51.053184",
        "meta_mean_motion": 14.34514444,
        "meta_eccentricity": 0.0026283,
        "meta_inclination": 74.0362,
        "meta_ra_of_asc_node": 317.4173,
        "meta_arg_of_pericenter": 16.8555,
        "meta_mean_anomaly": 103.2676,
        "meta_ephemeris_type": 0,
        "meta_classification_type": "U",
        "meta_norad_cat_id": 37530,
        "meta_element_set_no": 999,
        "meta_rev_at_epoch": 85359,
        "meta_bstar": 0.00021616,
        "meta_mean_motion_dot": 5.86e-06,
        "meta_mean_motion_ddot": 0,
        "tle_line1": "1 37530U 93036BNK 25355.59850756  .00000586  00000+0  21616-3 0  9991",
        "tle_line2": "2 37530  74.0362 317.4173 0026283  16.8555 103.2676 14.34514444853598"
      },
      "geometry": {
        "type": "Point",
        "coordinates": [
          113.22888379923272,
          51.05029463782156
        ]
      }
    },
    {
      "type": "Feature",
      "properties": {
        "norad_id": 37532,
        "name": "COSMOS 2251 DEB",
        "group": "cosmos-2251-debris",
        "lat": -29.916409342554143,
        "lon": 25.288136749292715,
        "alt_km": 754.6608532279079,
        "timestamp": "2025-12-23T11:34:48.558038+00:00",
        "meta_object_name": "COSMOS 2251 DEB",
        "meta_object_id": "1993-036BNM",
        "meta_epoch": "2025-12-14T09:22:45.259968",
        "meta_mean_motion": 14.42410404,
        "meta_eccentricity": 0.00160101,
        "meta_inclination": 74.0496,
        "meta_ra_of_asc_node": 212.6604,
        "meta_arg_of_pericenter": 313.2255,
        "meta_mean_anomaly": 226.6563,
        "meta_ephemeris_type": 0,
        "meta_classification_type": "U",
        "meta_norad_cat_id": 37532,
        "meta_element_set_no": 999,
        "meta_rev_at_epoch": 84939,
        "meta_bstar": 0.00027461522,
        "meta_mean_motion_dot": 8.83e-06,
        "meta_mean_motion_ddot": 0,
        "tle_line1": "1 37532U 93036BNM 25348.39080162  .00000883  00000+0  27462-3 0  9994",
        "tle_line2": "2 37532  74.0496 212.6604 0016010 313.2255 226.6563 14.42410404849399"
      },
      "geometry": {
        "type": "Point",
        "coordinates": [
          25.288136749292715,
          -29.916409342554143
        ]
      }
    }
  ]
}